{"type": "FeatureCollection", "features": [ {"type": "Feature", "properties": {"norad_id": 33841, "name": "COSMOS 2251 DEB", "group": "cosmos-2251-debris", "lat": -66.19738488683232, "lon": -119.0360783707948, "alt_km": 768.4863584946715, "timestamp": "2025-12-10T21:43:22.483884+00:00", "meta": {"OBJECT_NAME": "COSMOS 2251 DEB", "OBJECT_ID": "1993-036CJ", "EPOCH": "2025-12-10T07:46:17.469120", "MEAN_MOTION": 14.37855141, "ECCENTRICITY": 0.0020427, "INCLINATION": 74.0377, "RA_OF_ASC_NODE": 282.4898, "ARG_OF_PERICENTER": 3.3922, "MEAN_ANOMALY": 156.9543, "EPHEMERIS_TYPE": 0, "CLASSIFICATION_TYPE": "U", "NORAD_CAT_ID": 33841, "ELEMENT_SET_NO": 999, "REV_AT_EPOCH": 88079, "BSTAR": 0.00041232, "MEAN_MOTION_DOT": 1.22e-05, "MEAN_MOTION_DDOT": 0}, "tle": {"line1": "1 33841U 93036CJ  25344.32381330  .00001220  00000+0  41232-3 0  9990", "line2": "2 33841  74.0377 282.4898 0020427   3.3922 156.9543 14.37855141880798"}}, "geometry": {"type": "Point", "coordinates": [-119.0360783707948, -66.19738488683232]}}, {"type": "Feature", "properties": {"norad_id": 33842, "name": "COSMOS 2251 DEB", "group": "cosmos-2251-debris", "lat": 27.728800798449175, "lon": 34.40158178476856, "alt_km": 781.7584847913467, "timestamp": "2025-12-10T21:43:22.483894+00:00", "meta": {"OBJECT_NAME": "COSMOS 2251 DEB", "OBJECT_ID": "1993-036CK", "EPOCH": "2025-12-10T09:22:29.199936", "MEAN_MOTION": 14.42690234, "ECCENTRICITY": 0.00472305, "INCLINATION": 74.0331, "RA_OF_ASC_NODE": 224.012, "ARG_OF_PERICENTER": 331.8075, "MEAN_ANOMALY": 28.0525, "EPHEMERIS_TYPE": 0, "CLASSIFICATION_TYPE": "U", "NORAD_CAT_ID": 33842, "ELEMENT_SET_NO": 999, "REV_AT_EPOCH": 88303, "BSTAR": 0.0004689028, "MEAN_MOTION_DOT": 1.554e-05, "MEAN_MOTION_DDOT": 0}, "tle": {"line1": "1 33842U 93036CK  25344.39061574  .00001554  00000+0  46890-3 0  9998", "line2": "2 33842  74.0331 224.0120 0047230 331.8075  28.0525 14.42690234883033"}}, "geometry": {"type": "Point", "coordinates": [34.40158178476856, 27.728800798449175]}}, {"type": "Feature", "properties": {"norad_id": 33844, "name": "COSMOS 2251 DEB", "group": "cosmos-2251-debris", "lat": 36.897510537887065, "lon": -136.25560346338742, "alt_km": 760.7336741560393, "timestamp": "2025-12-10T21:43:22.483905+00:00", "meta": {"OBJECT_NAME": "COSMOS 2251 DEB", "OBJECT_ID": "1993-036CM", "EPOCH": "2025-12-10T15:09:35.627040", "MEAN_MOTION": 14.33709266, "ECCENTRICITY": 0.00470695, "INCLINATION": 74.0672, "RA_OF_ASC_NODE": 56.6273, "ARG_OF_PERICENTER": 79.2503, "MEAN_ANOMALY": 90.6977, "EPHEMERIS_TYPE": 0, "CLASSIFICATION_TYPE": "U", "NORAD_CAT_ID": 33844, "ELEMENT_SET_NO": 999, "REV_AT_EPOCH": 87695, "BSTAR": 0.00057914266, "MEAN_MOTION_DOT": 1.602e-05, "MEAN_MOTION_DDOT": 0}, "tle": {"line1": "1 33844U 93036CM  25344.63166235  .00001602  00000+0  57914-3 0  9990", "line2": "2 33844  74.0672  56.6273 0047069  79.2503  90.6977 14.33709266876955"}}, "geometry": {"type": "Point", "coordinates": [-136.25560346338742, 36.897510537887065]}}, {"type": "Feature", "properties": {"norad_id": 33848, "name": "COSMOS 2251 DEB", "group": "cosmos-2251-debris", "lat": -65.92637030869997, "lon": -139.08657533769934, "alt_km": 780.3994838328808, "timestamp": "2025-12-10T21:43:22.483915+00:00", "meta": {"OBJECT_NAME": "COSMOS 2251 DEB", "OBJECT_ID": "1993-036CR", "EPOCH": "2025-12-10T12:47:57.598656", "MEAN_MOTION": 14.44036765, "ECCENTRICITY": 0.00410337, "INCLINATION": 74.0323, "RA_OF_ASC_NODE": 1.748, "ARG_OF_PERICENTER": 58.3401, "MEAN_ANOMALY": 61.3715, "EPHEMERIS_TYPE": 0, "CLASSIFICATION_TYPE": "U", "NORAD_CAT_ID": 33848, "ELEMENT_SET_NO": 999, "REV_AT_EPOCH": 87799, "BSTAR": 0.00145922, "MEAN_MOTION_DOT": 5.02e-05, "MEAN_MOTION_DDOT": 0}, "tle": {"line1": "1 33848U 93036CR  25344.53330554  .00005020  00000+0  14592-2 0  9992", "line2": "2 33848  74.0323   1.7480 0041033  58.3401  61.3715 14.44036765877992"}}, "geometry": {"type": "Point", "coordinates": [-139.08657533769934, -65.92637030869997]}}, {"type": "Feature", "properties": {"norad_id": 33892, "name": "COSMOS 2251 DEB", "group": "cosmos-2251-debris", "lat": -44.795374988152375, "lon": 88.63140926943869, "alt_km": 901.5510815599182, "timestamp": "2025-12-10T21:43:22.483926+00:00", "meta": {"OBJECT_NAME": "COSMOS 2251 DEB", "OBJECT_ID": "1993-036CV", "EPOCH": "2025-12-10T10:27:05.878080", "MEAN_MOTION": 14.23324303, "ECCENTRICITY": 0.01130295, "INCLINATION": 73.8029, "RA_OF_ASC_NODE": 106.2613, "ARG_OF_PERICENTER": 137.9273, "MEAN_ANOMALY": 289.3963, "EPHEMERIS_TYPE": 0, "CLASSIFICATION_TYPE": "U", "NORAD_CAT_ID": 33892, "ELEMENT_SET_NO": 999, "REV_AT_EPOCH": 86922, "BSTAR": 0.0013718934, "MEAN_MOTION_DOT": 3.296e-05, "MEAN_MOTION_DDOT": 0}, "tle": {"line1": "1 33892U 93036CV  25344.43548470  .00003296  00000+0  13719-2 0  9991", "line2": "2 33892  73.8029 106.2613 0113029 137.9273 289.3963 14.23324303869225"}}, "geometry": {"type": "Point", "coordinates": [88.63140926943869, -44.795374988152375]}}, {"type": "Feature", "properties": {"norad_id": 33894, "name": "COSMOS 2251 DEB", "group": "cosmos-2251-debris", "lat": 8.800617257014318, "lon": 169.33446457327193, "alt_km": 1238.605008268487, "timestamp": "2025-12-10T21:43:22.483936+00:00", "meta": {"OBJECT_NAME": "COSMOS 2251 DEB", "OBJECT_ID": "1993-036CX", "EPOCH": "2025-12-10T09:53:34.344384", "MEAN_MOTION": 13.21291584, "ECCENTRICITY": 0.05796026, "INCLINATION": 73.7673, "RA_OF_ASC_NODE": 352.6817, "ARG_OF_PERICENTER": 272.3894, "MEAN_ANOMALY": 81.099, "EPHEMERIS_TYPE": 0, "CLASSIFICATION_TYPE": "U", "NORAD_CAT_ID": 33894, "ELEMENT_SET_NO": 999, "REV_AT_EPOCH": 80677, "BSTAR": 0.0026236672, "MEAN_MOTION_DOT": 2.591e-05, "MEAN_MOTION_DDOT": 0}, "tle": {"line1": "1 33894U 93036CX  25344.41220306  .00002591  00000+0  26237-2 0  9992", "line2": "2 33894  73.7673 352.6817 0579602 272.3894  81.0990 13.21291584806779"}}, "geometry": {"type": "Point", "coordinates": [169.33446457327193, 8.800617257014318]}}, {"type": "Feature", "properties": {"norad_id": 33896, "name": "COSMOS 2251 DEB", "group": "cosmos-2251-debris", "lat": 48.769509598154485, "lon": 179.43162033190126, "alt_km": 800.1653972128997, "timestamp": "2025-12-10T21:43:22.483946+00:00", "meta": {"OBJECT_NAME": "COSMOS 2251 DEB", "OBJECT_ID": "1993-036CZ", "EPOCH": "2025-12-10T11:28:01.575264", "MEAN_MOTION": 14.19028669, "ECCENTRICITY": 0.01263351, "INCLINATION": 73.7662, "RA_OF_ASC_NODE": 160.7895, "ARG_OF_PERICENTER": 336.8601, "MEAN_ANOMALY": 51.2261, "EPHEMERIS_TYPE": 0, "CLASSIFICATION_TYPE": "U", "NORAD_CAT_ID": 33896, "ELEMENT_SET_NO": 999, "REV_AT_EPOCH": 86708, "BSTAR": 0.0008832852, "MEAN_MOTION_DOT": 1.97e-05, "MEAN_MOTION_DDOT": 0}, "tle": {"line1": "1 33896U 93036CZ  25344.47779601  .00001970  00000+0  88329-3 0  9998", "line2": "2 33896  73.7662 160.7895 0126335 336.8601  51.2261 14.19028669867087"}}, "geometry": {"type": "Point", "coordinates": [179.43162033190126, 48.769509598154485]}}, {"type": "Feature", "properties": {"norad_id": 33899, "name": "COSMOS 2251 DEB", "group": "cosmos-2251-debris", "lat": 26.869522803949785, "lon": -99.09926075624534, "alt_km": 647.7851000718783, "timestamp": "2025-12-10T21:43:22.483956+00:00", "meta": {"OBJECT_NAME": "COSMOS 2251 DEB", "OBJECT_ID": "1993-036DC", "EPOCH": "2025-12-10T09:50:14.987616", "MEAN_MOTION": 14.61151402, "ECCENTRICITY": 0.00569816, "INCLINATION": 74.0539, "RA_OF_ASC_NODE": 90.1754, "ARG_OF_PERICENTER": 153.566, "MEAN_ANOMALY": 274.4113, "EPHEMERIS_TYPE": 0, "CLASSIFICATION_TYPE": "U", "NORAD_CAT_ID": 33899, "ELEMENT_SET_NO": 999, "REV_AT_EPOCH": 88805, "BSTAR": 0.0016978101, "MEAN_MOTION_DOT": 8.53e-05, "MEAN_MOTION_DDOT": 0}, "tle": {"line1": "1 33899U 93036DC  25344.40989569  .00008530  00000+0  16978-2 0  9999", "line2": "2 33899  74.0539  90.1754 0056981 153.5660 274.4113 14.61151402888059"}}, "geometry": {"type": "Point", "coordinates": [-99.09926075624534, 26.869522803949785]}}, {"type": "Feature", "properties": {"norad_id": 33900, "name": "COSMOS 2251 DEB", "group": "cosmos-2251-debris", "lat": -25.393372108170837, "lon": -168.8227764697983, "alt_km": 682.5286219472764, "timestamp": "2025-12-10T21:43:22.483967+00:00", "meta": {"OBJECT_NAME": "COSMOS 2251 DEB", "OBJECT_ID": "1993-036DD", "EPOCH": "2025-12-10T11:35:34.556640", "MEAN_MOTION": 14.58334107, "ECCENTRICITY": 0.00469757, "INCLINATION": 74.0194, "RA_OF_ASC_NODE": 4.1627, "ARG_OF_PERICENTER": 156.9179, "MEAN_ANOMALY": 354.0252, "EPHEMERIS_TYPE": 0, "CLASSIFICATION_TYPE": "U", "NORAD_CAT_ID": 33900, "ELEMENT_SET_NO": 999, "REV_AT_EPOCH": 89003, "BSTAR": 0.00057829369, "MEAN_MOTION_DOT": 2.688e-05, "MEAN_MOTION_DDOT": 0}, "tle": {"line1": "1 33900U 93036DD  25344.48303885  .00002688  00000+0  57829-3 0  9990", "line2": "2 33900  74.0194   4.1627 0046975 156.9179 354.0252 14.58334107890038"}}, "geometry": {"type": "Point", "coordinates": [-168.8227764697983, -25.393372108170837]}}, {"type": "Feature", "properties": {"norad_id": 33901, "name": "COSMOS 2251 DEB", "group": "cosmos-2251-debris", "lat": 12.2074006061437, "lon": -130.43384827370832, "alt_km": 498.861772260635, "timestamp": "2025-12-10T21:43:22.483977+00:00", "meta": {"OBJECT_NAME": "COSMOS 2251 DEB", "OBJECT_ID": "1993-036DE", "EPOCH": "2025-12-10T14:39:00.573120", "MEAN_MOTION": 15.15534655, "ECCENTRICITY": 0.0032489, "INCLINATION": 73.7734, "RA_OF_ASC_NODE": 53.8016, "ARG_OF_PERICENTER": 185.9102, "MEAN_ANOMALY": 174.1714, "EPHEMERIS_TYPE": 0, "CLASSIFICATION_TYPE": "U", "NORAD_CAT_ID": 33901, "ELEMENT_SET_NO": 999, "REV_AT_EPOCH": 89481, "BSTAR": 0.0046375748, "MEAN_MOTION_DOT": 0.00090164, "MEAN_MOTION_DDOT": 0}, "tle": {"line1": "1 33901U 93036DE  25344.61042330  .00090164  00000+0  46376-2 0  9991", "line2": "2 33901  73.7734  53.8016 0032489 185.9102 174.1714 15.15534655894819"}}, "geometry": {"type": "Point", "coordinates": [-130.43384827370832, 12.2074006061437]}}]}